{
  "type": "FeatureCollection",
  "features": [
    {
      "type": "Feature",
      "properties": {
        "norad_id": 66868,
        "name": "STARLINK-36108",
        "group": "last-30-days",
        "lat": 36.967142977475035,
        "lon": 161.11236512565927,
        "alt_km": 312.38228552077726,
        "timestamp": "2025-12-15T04:01:19.181777+00:00",
        "meta_object_name": "STARLINK-36108",
        "meta_object_id": "2025-281W",
        "meta_epoch": "2025-12-14T06:00:02.999808",
        "meta_mean_motion": 15.87346912,
        "meta_eccentricity": 0.00014283,
        "meta_inclination": 43.0006,
        "meta_ra_of_asc_node": 112.899,
        "meta_arg_of_pericenter": 261.0864,
        "meta_mean_anomaly": 315.4336,
        "meta_ephemeris_type": 0,
        "meta_classification_type": "U",
        "meta_norad_cat_id": 66868,
        "meta_element_set_no": 999,
        "meta_rev_at_epoch": 148,
        "meta_bstar": -0.0055108821,
        "meta_mean_motion_dot": -0.01321045,
        "meta_mean_motion_ddot": 0,
        "tle_line1": "1 66868U 25281W   25348.25003472 -.01321045  00000+0 -55109-2 0  9996",
        "tle_line2": "2 66868  43.0006 112.8990 0001428 261.0864 315.4336 15.87346912  1485"
      },
      "geometry": {
        "type": "Point",
        "coordinates": [
          161.11236512565927,
          36.967142977475035
        ]
      }
    },
    {
      "type": "Feature",
      "properties": {
        "norad_id": 66869,
        "name": "STARLINK-36092",
        "group": "last-30-days",
        "lat": 37.98712489542006,
        "lon": 164.16688836555153,
        "alt_km": 312.51006413097275,
        "timestamp": "2025-12-15T04:01:19.181787+00:00",
        "meta_object_name": "STARLINK-36092",
        "meta_object_id": "2025-281X",
        "meta_epoch": "2025-12-14T06:00:02.999808",
        "meta_mean_motion": 15.87377457,
        "meta_eccentricity": 0.00015833,
        "meta_inclination": 43.0007,
        "meta_ra_of_asc_node": 112.8921,
        "meta_arg_of_pericenter": 265.3103,
        "meta_mean_anomaly": 313.9166,
        "meta_ephemeris_type": 0,
        "meta_classification_type": "U",
        "meta_norad_cat_id": 66869,
        "meta_element_set_no": 999,
        "meta_rev_at_epoch": 167,
        "meta_bstar": -0.0057382748,
        "meta_mean_motion_dot": -0.01370652,
        "meta_mean_motion_ddot": 0,
        "tle_line1": "1 66869U 25281X   25348.25003472 -.01370652  00000+0 -57383-2 0  9991",
        "tle_line2": "2 66869  43.0007 112.8921 0001583 265.3103 313.9166 15.87377457  1679"
      },
      "geometry": {
        "type": "Point",
        "coordinates": [
          164.16688836555153,
          37.98712489542006
        ]
      }
    },
    {
      "type": "Feature",
      "properties": {
        "norad_id": 66870,
        "name": "STARLINK-36114",
        "group": "last-30-days",
        "lat": 39.12237714669332,
        "lon": 168.01283853821903,
        "alt_km": 312.80092789938226,
        "timestamp": "2025-12-15T04:01:19.181797+00:00",
        "meta_object_name": "STARLINK-36114",
        "meta_object_id": "2025-281Y",
        "meta_epoch": "2025-12-14T06:00:02.999808",
        "meta_mean_motion": 15.87380503,
        "meta_eccentricity": 0.00015236,
        "meta_inclination": 43.0005,
        "meta_ra_of_asc_node": 112.8834,
        "meta_arg_of_pericenter": 258.7793,
        "meta_mean_anomaly": 323.8891,
        "meta_ephemeris_type": 0,
        "meta_classification_type": "U",
        "meta_norad_cat_id": 66870,
        "meta_element_set_no": 999,
        "meta_rev_at_epoch": 154,
        "meta_bstar": -0.0060424883,
        "meta_mean_motion_dot": -0.01433793,
        "meta_mean_motion_ddot": 0,
        "tle_line1": "1 66870U 25281Y   25348.25003472 -.01433793  00000+0 -60425-2 0  9990",
        "tle_line2": "2 66870  43.0005 112.8834 0001523 258.7793 323.8891 15.87380503  1544"
      },
      "geometry": {
        "type": "Point",
        "coordinates": [
          168.01283853821903,
          39.12237714669332
        ]
      }
    },
    {
      "type": "Feature",
      "properties": {
        "norad_id": 66871,
        "name": "STARLINK-36095",
        "group": "last-30-days",
        "lat": 40.14889469360109,
        "lon": 172.07193627220641,
        "alt_km": 312.8197964942974,
        "timestamp": "2025-12-15T04:01:19.181809+00:00",
        "meta_object_name": "STARLINK-36095",
        "meta_object_id": "2025-281Z",
        "meta_epoch": "2025-12-14T06:00:02.999808",
        "meta_mean_motion": 15.87355533,
        "meta_eccentricity": 0.00013883,
        "meta_inclination": 43.0004,
        "meta_ra_of_asc_node": 112.8739,
        "meta_arg_of_pericenter": 264.5376,
        "meta_mean_anomaly": 321.6444,
        "meta_ephemeris_type": 0,
        "meta_classification_type": "U",
        "meta_norad_cat_id": 66871,
        "meta_element_set_no": 999,
        "meta_rev_at_epoch": 167,
        "meta_bstar": -0.0062366877,
        "meta_mean_motion_dot": -0.01502459,
        "meta_mean_motion_ddot": 0,
        "tle_line1": "1 66871U 25281Z   25348.25003472 -.01502459  00000+0 -62367-2 0  9994",
        "tle_line2": "2 66871  43.0004 112.8739 0001388 264.5376 321.6444 15.87355533  1678"
      },
      "geometry": {
        "type": "Point",
        "coordinates": [
          172.07193627220641,
          40.14889469360109
        ]
      }
    },
    {
      "type": "Feature",
      "properties": {
        "norad_id": 66872,
        "name": "STARLINK-36082",
        "group": "last-30-days",
        "lat": 40.80790390192581,
        "lon": 175.1169922430201,
        "alt_km": 312.7802952577704,
        "timestamp": "2025-12-15T04:01:19.181821+00:00",
        "meta_object_name": "STARLINK-36082",
        "meta_object_id": "2025-281AA",
        "meta_epoch": "2025-12-14T06:00:02.999808",
        "meta_mean_motion": 15.87354213,
        "meta_eccentricity": 0.0001391,
        "meta_inclination": 43.0004,
        "meta_ra_of_asc_node": 112.8676,
        "meta_arg_of_pericenter": 267.5487,
        "meta_mean_anomaly": 321.0901,
        "meta_ephemeris_type": 0,
        "meta_classification_type": "U",
        "meta_norad_cat_id": 66872,
        "meta_element_set_no": 999,
        "meta_rev_at_epoch": 154,
        "meta_bstar": -0.0062955627,
        "meta_mean_motion_dot": -0.01514894,
        "meta_mean_motion_ddot": 0,
        "tle_line1": "1 66872U 25281AA  25348.25003472 -.01514894  00000+0 -62956-2 0  9995",
        "tle_line2": "2 66872  43.0004 112.8676 0001391 267.5487 321.0901 15.87354213  1541"
      },
      "geometry": {
        "type": "Point",
        "coordinates": [
          175.1169922430201,
          40.80790390192581
        ]
      }
    },
    {
      "type": "Feature",
      "properties": {
        "norad_id": 66873,
        "name": "STARLINK-36128",
        "group": "last-30-days",
        "lat": 42.465170624624356,
        "lon": -173.64718979217196,
        "alt_km": 313.0407412758941,
        "timestamp": "2025-12-15T04:01:19.181833+00:00",
        "meta_object_name": "STARLINK-36128",
        "meta_object_id": "2025-281AB",
        "meta_epoch": "2025-12-14T06:00:02.999808",
        "meta_mean_motion": 15.87275166,
        "meta_eccentricity": 0.00014903,
        "meta_inclination": 43,
        "meta_ra_of_asc_node": 112.8451,
        "meta_arg_of_pericenter": 265.3684,
        "meta_mean_anomaly": 332.1722,
        "meta_ephemeris_type": 0,
        "meta_classification_type": "U",
        "meta_norad_cat_id": 66873,
        "meta_element_set_no": 999,
        "meta_rev_at_epoch": 167,
        "meta_bstar": -0.0064256949,
        "meta_mean_motion_dot": -0.01537177,
        "meta_mean_motion_ddot": 0,
        "tle_line1": "1 66873U 25281AB  25348.25003472 -.01537177  00000+0 -64257-2 0  9991",
        "tle_line2": "2 66873  43.0000 112.8451 0001490 265.3684 332.1722 15.87275166  1671"
      },
      "geometry": {
        "type": "Point",
        "coordinates": [
          -173.64718979217196,
          42.465170624624356
        ]
      }
    },
    {
      "type": "Feature",
      "properties": {
        "norad_id": 66874,
        "name": "STARLINK-36129",
        "group": "last-30-days",
        "lat": 41.55489600196104,
        "lon": 179.24396486799375,
        "alt_km": 312.8516115190305,
        "timestamp": "2025-12-15T04:01:19.181843+00:00",
        "meta_object_name": "STARLINK-36129",
        "meta_object_id": "2025-281AC",
        "meta_epoch": "2025-12-14T06:00:02.999808",
        "meta_mean_motion": 15.87314509,
        "meta_eccentricity": 0.00013166,
        "meta_inclination": 43.0002,
        "meta_ra_of_asc_node": 112.8594,
        "meta_arg_of_pericenter": 266.2018,
        "meta_mean_anomaly": 325.8153,
        "meta_ephemeris_type": 0,
        "meta_classification_type": "U",
        "meta_norad_cat_id": 66874,
        "meta_element_set_no": 999,
        "meta_rev_at_epoch": 167,
        "meta_bstar": -0.0063734975,
        "meta_mean_motion_dot": -0.01528682,
        "meta_mean_motion_ddot": 0,
        "tle_line1": "1 66874U 25281AC  25348.25003472 -.01528682  00000+0 -63735-2 0  9993",
        "tle_line2": "2 66874  43.0002 112.8594 0001316 266.2018 325.8153 15.87314509  1672"
      },
      "geometry": {
        "type": "Point",
        "coordinates": [
          179.24396486799375,
          41.55489600196104
        ]
      }
    }
  ]
}